{"fetched_at":"2026-03-29T16:36:15Z","count":15609,"tles":[{"name":"STARLINK-30335","line1":"1 57710U 23129N   26087.77871176  .00003387  00000+0  13254-3 0  9992","line2":"2 57710  43.0030   9.9589 0001259 246.2778 113.7942 15.27585360143608","category":"Starlink"}]}